Mystar1
1 40079U 14038A   24096.54459139 -.00000019  00000-0  00000-0 0  9998
2 40079   0.0580   2.0583 0003330  60.1323   0.0000  5.00114509172896
Mystar2
1 40079U 14038A   24096.54459139 -.00000019  00000-0  00000-0 0  9998
2 40079   0.0580   2.0583 0003330  60.1323  60.0000  5.00114509172896
Mystar3
1 40079U 14038A   24096.54459139 -.00000019  00000-0  00000-0 0  9998
2 40079   0.0580   2.0583 0003330  60.1323 120.0000  5.00114509172896
Mystar4
1 40079U 14038A   24096.54459139 -.00000019  00000-0  00000-0 0  9998
2 40079   0.0580   2.0583 0003330  60.1323 180.0000  5.00114509172896
Mystar5
1 40079U 14038A   24096.54459139 -.00000019  00000-0  00000-0 0  9998
2 40079   0.0580   2.0583 0003330  60.1323 240.0000  5.00114509172896
Mystar6
1 40079U 14038A   24096.54459139 -.00000019  00000-0  00000-0 0  9998
2 40079   0.0580   2.0583 0003330  60.1323 300.0000  5.00114509172896